[{"OBJECT_NAME":"IRIDIUM 177","OBJECT_ID":"2023-068T","EPOCH":"2026-03-09T21:08:04.695360","MEAN_MOTION":14.80207725,"ECCENTRICITY":0.00023207,"INCLINATION":86.2006,"RA_OF_ASC_NODE":15.9326,"ARG_OF_PERICENTER":75.4952,"MEAN_ANOMALY":284.6526,"EPHEMERIS_TYPE":0,"CLASSIFICATION_TYPE":"U","NORAD_CAT_ID":56727,"ELEMENT_SET_NO":999,"REV_AT_EPOCH":15167,"BSTAR":0.00019232012,"MEAN_MOTION_DOT":1.487e-5,"MEAN_MOTION_DDOT":0},{"OBJECT_NAME":"DELTA 1 DEB","OBJECT_ID":"1972-058KA","EPOCH":"2026-03-08T07:21:53.808192","MEAN_MOTION":14.6721751,"ECCENTRICITY":0.01109628,"INCLINATION":98.5041,"RA_OF_ASC_NODE":200.6799,"ARG_OF_PERICENTER":314.1608,"MEAN_ANOMALY":45.0513,"EPHEMERIS_TYPE":0,"CLASSIFICATION_TYPE":"U","NORAD_CAT_ID":42567,"ELEMENT_SET_NO":999,"REV_AT_EPOCH":65590,"BSTAR":0.00024879584,"MEAN_MOTION_DOT":1.475e-5,"MEAN_MOTION_DDOT":0}]
